[{"OBJECT_NAME":"STARLINK-35188","OBJECT_ID":"2025-200C","EPOCH":"2026-03-09T17:54:31.856256","MEAN_MOTION":15.05649129,"ECCENTRICITY":6.943e-5,"INCLINATION":97.6033,"RA_OF_ASC_NODE":139.9184,"ARG_OF_PERICENTER":18.8489,"MEAN_ANOMALY":341.2763,"EPHEMERIS_TYPE":0,"CLASSIFICATION_TYPE":"U","NORAD_CAT_ID":65522,"ELEMENT_SET_NO":999,"REV_AT_EPOCH":2914,"BSTAR":0.00037426778,"MEAN_MOTION_DOT":5.343e-5,"MEAN_MOTION_DDOT":0},{"OBJECT_NAME":"COSMOS 252 DEB","OBJECT_ID":"1968-097H","EPOCH":"2026-03-09T15:55:45.465888","MEAN_MOTION":13.08433626,"ECCENTRICITY":0.09089174,"INCLINATION":62.3171,"RA_OF_ASC_NODE":165.0158,"ARG_OF_PERICENTER":153.052,"MEAN_ANOMALY":212.0845,"EPHEMERIS_TYPE":0,"CLASSIFICATION_TYPE":"U","NORAD_CAT_ID":3555,"ELEMENT_SET_NO":999,"REV_AT_EPOCH":72378,"BSTAR":0.0001690308,"MEAN_MOTION_DOT":3.69e-6,"MEAN_MOTION_DDOT":0}]
